[
{
  "model": "address_api.address",
  "pk": 43,
  "fields": {
    "street": "12345 Delete me",
    "street_2": null,
    "city": "del",
    "addr_state": "co",
    "zipcode": 98434,
    "image": ""
  }
},
{
  "model": "address_api.address",
  "pk": 53,
  "fields": {
    "street": "567 Bonner Ave.",
    "street_2": null,
    "city": "Swan",
    "addr_state": "NY",
    "zipcode": 98434,
    "image": ""
  }
},
{
  "model": "address_api.address",
  "pk": 59,
  "fields": {
    "street": "5979 Belleville Crossing St.",
    "street_2": null,
    "city": "Belleville",
    "addr_state": "IL",
    "zipcode": 62226,
    "image": ""
  }
},
{
  "model": "address_api.address",
  "pk": 66,
  "fields": {
    "street": "15 Italo Way",
    "street_2": null,
    "city": "Rio",
    "addr_state": "Brazil",
    "zipcode": 98434,
    "image": ""
  }
},
{
  "model": "address_api.address",
  "pk": 67,
  "fields": {
    "street": "45 Mar Dr.",
    "street_2": null,
    "city": "Mar-a-lago",
    "addr_state": "FL",
    "zipcode": 98434,
    "image": ""
  }
},
{
  "model": "address_api.address",
  "pk": 68,
  "fields": {
    "street": "1100 S. Ocean Blvd.",
    "street_2": null,
    "city": "Palm Beach",
    "addr_state": "FL",
    "zipcode": 33480,
    "image": ""
  }
},
{
  "model": "address_api.address",
  "pk": 69,
  "fields": {
    "street": "123 Outback",
    "street_2": null,
    "city": "Sydney",
    "addr_state": "AU",
    "zipcode": 98434,
    "image": ""
  }
},
{
  "model": "address_api.address",
  "pk": 70,
  "fields": {
    "street": "456 Braz Rd",
    "street_2": null,
    "city": "Rio",
    "addr_state": "BR",
    "zipcode": 98434,
    "image": ""
  }
},
{
  "model": "address_api.address",
  "pk": 75,
  "fields": {
    "street": "555 Sunnyj",
    "street_2": null,
    "city": "Sunny",
    "addr_state": "HI",
    "zipcode": 77777,
    "image": ""
  }
},
{
  "model": "address_api.address",
  "pk": 76,
  "fields": {
    "street": "888 Odyssea",
    "street_2": null,
    "city": "Catch",
    "addr_state": "HI",
    "zipcode": 55555,
    "image": ""
  }
},
{
  "model": "address_api.address",
  "pk": 79,
  "fields": {
    "street": "10 Main Street",
    "street_2": null,
    "city": "Lynnville",
    "addr_state": "IL",
    "zipcode": 62650,
    "image": ""
  }
},
{
  "model": "address_api.address",
  "pk": 80,
  "fields": {
    "street": "456 Deu",
    "street_2": null,
    "city": "Kai",
    "addr_state": "K",
    "zipcode": 98443,
    "image": ""
  }
},
{
  "model": "address_api.address",
  "pk": 81,
  "fields": {
    "street": "123 Christianitos",
    "street_2": null,
    "city": "San Clemente",
    "addr_state": "CA",
    "zipcode": 98434,
    "image": ""
  }
},
{
  "model": "address_api.address",
  "pk": 92,
  "fields": {
    "street": "009 Flow",
    "street_2": null,
    "city": "W",
    "addr_state": "HI",
    "zipcode": 98344,
    "image": ""
  }
},
{
  "model": "address_api.address",
  "pk": 93,
  "fields": {
    "street": "123 Brah Ct",
    "street_2": null,
    "city": "Rio",
    "addr_state": "BR",
    "zipcode": 9832,
    "image": ""
  }
},
{
  "model": "address_api.address",
  "pk": 94,
  "fields": {
    "street": "123 Del",
    "street_2": null,
    "city": "Del",
    "addr_state": "CA",
    "zipcode": 98434,
    "image": ""
  }
},
{
  "model": "address_api.address",
  "pk": 95,
  "fields": {
    "street": "1234 Del",
    "street_2": null,
    "city": "Del",
    "addr_state": "CA",
    "zipcode": 98434,
    "image": ""
  }
},
{
  "model": "address_api.address",
  "pk": 96,
  "fields": {
    "street": "123 Pipe St.",
    "street_2": null,
    "city": "Wahiawa",
    "addr_state": "HI",
    "zipcode": 98344,
    "image": ""
  }
},
{
  "model": "address_api.address",
  "pk": 97,
  "fields": {
    "street": "123 Christianitos",
    "street_2": null,
    "city": "San Clemente",
    "addr_state": "CA",
    "zipcode": 98344,
    "image": ""
  }
},
{
  "model": "address_api.address",
  "pk": 98,
  "fields": {
    "street": "124 Pipe Way",
    "street_2": null,
    "city": "Wahi",
    "addr_state": "HI",
    "zipcode": 98434,
    "image": ""
  }
},
{
  "model": "address_api.address",
  "pk": 99,
  "fields": {
    "street": "123 Rio Ave",
    "street_2": null,
    "city": "Rio",
    "addr_state": "BR",
    "zipcode": 98343,
    "image": ""
  }
},
{
  "model": "address_api.address",
  "pk": 100,
  "fields": {
    "street": "123 Aus",
    "street_2": null,
    "city": "Sydney",
    "addr_state": "Aus",
    "zipcode": 93844,
    "image": ""
  }
},
{
  "model": "address_api.address",
  "pk": 101,
  "fields": {
    "street": "123 aus",
    "street_2": null,
    "city": "aus",
    "addr_state": "au",
    "zipcode": 93844,
    "image": ""
  }
},
{
  "model": "address_api.address",
  "pk": 132,
  "fields": {
    "street": "117 Eden Park Blvd.",
    "street_2": null,
    "city": "Shiloh",
    "addr_state": "IL",
    "zipcode": 62269,
    "image": ""
  }
},
{
  "model": "address_api.address",
  "pk": 133,
  "fields": {
    "street": "120 Eden Park Blvd",
    "street_2": null,
    "city": "Shiloh",
    "addr_state": "IL",
    "zipcode": 62269,
    "image": ""
  }
},
{
  "model": "address_api.address",
  "pk": 134,
  "fields": {
    "street": "121 Eden Park Blvd.",
    "street_2": null,
    "city": "Shiloh",
    "addr_state": "IL",
    "zipcode": 62269,
    "image": ""
  }
},
{
  "model": "address_api.address",
  "pk": 135,
  "fields": {
    "street": "127 Eden Park Blvd.",
    "street_2": null,
    "city": "Shiloh",
    "addr_state": "IL",
    "zipcode": 62269,
    "image": ""
  }
},
{
  "model": "address_api.address",
  "pk": 136,
  "fields": {
    "street": "109 Eden Park Blvd.",
    "street_2": null,
    "city": "Shiloh",
    "addr_state": "IL",
    "zipcode": 62269,
    "image": ""
  }
},
{
  "model": "address_api.address",
  "pk": 137,
  "fields": {
    "street": "113 Eden Park Blvd.",
    "street_2": null,
    "city": "Shiloh",
    "addr_state": "IL",
    "zipcode": 62269,
    "image": ""
  }
},
{
  "model": "address_api.address",
  "pk": 138,
  "fields": {
    "street": "105 Eden Park Blvd.",
    "street_2": null,
    "city": "Shiloh",
    "addr_state": "IL",
    "zipcode": 62269,
    "image": ""
  }
},
{
  "model": "address_api.address",
  "pk": 139,
  "fields": {
    "street": "104 Eden Park Blvd.",
    "street_2": null,
    "city": "Shiloh",
    "addr_state": "IL",
    "zipcode": 62269,
    "image": ""
  }
},
{
  "model": "address_api.address",
  "pk": 140,
  "fields": {
    "street": "124 Eden Park Blvd.",
    "street_2": null,
    "city": "Shiloh",
    "addr_state": "IL",
    "zipcode": 62269,
    "image": ""
  }
},
{
  "model": "address_api.address",
  "pk": 141,
  "fields": {
    "street": "112 Eden Park Blvd.",
    "street_2": null,
    "city": "Shiloh",
    "addr_state": "IL",
    "zipcode": 62269,
    "image": ""
  }
},
{
  "model": "address_api.address",
  "pk": 142,
  "fields": {
    "street": "116 Eden Park Blvd.",
    "street_2": null,
    "city": "Shiloh",
    "addr_state": "IL",
    "zipcode": 62269,
    "image": ""
  }
},
{
  "model": "address_api.address",
  "pk": 144,
  "fields": {
    "street": "108 Eden Park Blvd.",
    "street_2": null,
    "city": "Shiloh",
    "addr_state": "IL",
    "zipcode": 62269,
    "image": ""
  }
},
{
  "model": "address_api.address",
  "pk": 145,
  "fields": {
    "street": "1000 W Maude Ave",
    "street_2": null,
    "city": "Sunnyvale",
    "addr_state": "CA",
    "zipcode": 94085,
    "image": ""
  }
},
{
  "model": "address_api.address",
  "pk": 146,
  "fields": {
    "street": "30802 South Coast Highway",
    "street_2": "SPC A1",
    "city": "Laguna Beach",
    "addr_state": "CA",
    "zipcode": 92651,
    "image": ""
  }
},
{
  "model": "address_api.address",
  "pk": 147,
  "fields": {
    "street": "30802 South Coast Highway",
    "street_2": "SPC A1",
    "city": "Laguna Beach",
    "addr_state": "CA",
    "zipcode": 92651,
    "image": ""
  }
},
{
  "model": "address_api.address",
  "pk": 148,
  "fields": {
    "street": "30802 South Coast Highway",
    "street_2": "SPC A1",
    "city": "Laguna Beach",
    "addr_state": "CA",
    "zipcode": 92651,
    "image": ""
  }
},
{
  "model": "address_api.address",
  "pk": 149,
  "fields": {
    "street": "30802 South Coast Highway",
    "street_2": "SPC A1",
    "city": "Laguna Beach",
    "addr_state": "CA",
    "zipcode": 92651,
    "image": ""
  }
},
{
  "model": "address_api.address",
  "pk": 150,
  "fields": {
    "street": "112 Eden Park Boulevard",
    "street_2": null,
    "city": "Shiloh",
    "addr_state": "IL",
    "zipcode": 62269,
    "image": ""
  }
},
{
  "model": "address_api.address",
  "pk": 151,
  "fields": {
    "street": "30802 South Coast Highway",
    "street_2": "SPC A1",
    "city": "Laguna Beach",
    "addr_state": "CA",
    "zipcode": 92651,
    "image": ""
  }
},
{
  "model": "address_api.address",
  "pk": 152,
  "fields": {
    "street": "112 Eden Park Boulevard",
    "street_2": null,
    "city": "Shiloh",
    "addr_state": "IL",
    "zipcode": 62269,
    "image": ""
  }
},
{
  "model": "address_api.address",
  "pk": 153,
  "fields": {
    "street": "30802 South Coast Highway",
    "street_2": "SPC A1",
    "city": "Laguna Beach",
    "addr_state": "CA",
    "zipcode": 92651,
    "image": ""
  }
},
{
  "model": "address_api.address",
  "pk": 154,
  "fields": {
    "street": "30802 South Coast Highway",
    "street_2": "SPC A1",
    "city": "Laguna Beach",
    "addr_state": "CA",
    "zipcode": 92651,
    "image": ""
  }
},
{
  "model": "address_api.address",
  "pk": 155,
  "fields": {
    "street": "112 Eden Park Boulevard",
    "street_2": null,
    "city": "Shiloh",
    "addr_state": "IL",
    "zipcode": 62269,
    "image": ""
  }
},
{
  "model": "address_api.address",
  "pk": 156,
  "fields": {
    "street": "112 Eden Park Boulevard",
    "street_2": null,
    "city": "O'Fallon",
    "addr_state": "IL",
    "zipcode": 62269,
    "image": ""
  }
},
{
  "model": "address_api.address",
  "pk": 157,
  "fields": {
    "street": "112 Eden Park Boulevard",
    "street_2": null,
    "city": "Shiloh",
    "addr_state": "IL",
    "zipcode": 62269,
    "image": ""
  }
},
{
  "model": "address_api.address",
  "pk": 158,
  "fields": {
    "street": "112 Eden Park Boulevard",
    "street_2": null,
    "city": "Shiloh",
    "addr_state": "IL",
    "zipcode": 62269,
    "image": ""
  }
},
{
  "model": "address_api.address",
  "pk": 159,
  "fields": {
    "street": "112 Eden Park Boulevard",
    "street_2": null,
    "city": "Shiloh",
    "addr_state": "IL",
    "zipcode": 62269,
    "image": ""
  }
},
{
  "model": "address_api.address",
  "pk": 160,
  "fields": {
    "street": "112 Eden Park Boulevard",
    "street_2": null,
    "city": "Shiloh",
    "addr_state": "IL",
    "zipcode": 62269,
    "image": ""
  }
},
{
  "model": "address_api.address",
  "pk": 161,
  "fields": {
    "street": "112 Eden Park Boulevard",
    "street_2": null,
    "city": "Shiloh",
    "addr_state": "IL",
    "zipcode": 62269,
    "image": ""
  }
},
{
  "model": "address_api.address",
  "pk": 162,
  "fields": {
    "street": "112 Eden Park Boulevard",
    "street_2": null,
    "city": "Shiloh",
    "addr_state": "IL",
    "zipcode": 62269,
    "image": ""
  }
},
{
  "model": "address_api.address",
  "pk": 163,
  "fields": {
    "street": "112 Eden Park Boulevard",
    "street_2": null,
    "city": "Shiloh",
    "addr_state": "IL",
    "zipcode": 62269,
    "image": ""
  }
},
{
  "model": "address_api.address",
  "pk": 164,
  "fields": {
    "street": "112 Eden Park Boulevard",
    "street_2": null,
    "city": "Shiloh",
    "addr_state": "IL",
    "zipcode": 62269,
    "image": ""
  }
},
{
  "model": "address_api.address",
  "pk": 165,
  "fields": {
    "street": "112 Eden Park Boulevard",
    "street_2": null,
    "city": "Shiloh",
    "addr_state": "IL",
    "zipcode": 62269,
    "image": ""
  }
},
{
  "model": "address_api.address",
  "pk": 166,
  "fields": {
    "street": "30802 South Coast Highway",
    "street_2": "SPC A1",
    "city": "Laguna Beach",
    "addr_state": "CA",
    "zipcode": 92651,
    "image": ""
  }
},
{
  "model": "address_api.address",
  "pk": 167,
  "fields": {
    "street": "30802 South Coast Highway",
    "street_2": "SPC A1",
    "city": "Laguna Beach",
    "addr_state": "CA",
    "zipcode": 92651,
    "image": ""
  }
},
{
  "model": "address_api.address",
  "pk": 168,
  "fields": {
    "street": "30802 South Coast Highway",
    "street_2": "SPC A1",
    "city": "Laguna Beach",
    "addr_state": "CA",
    "zipcode": 92651,
    "image": ""
  }
},
{
  "model": "address_api.address",
  "pk": 169,
  "fields": {
    "street": "30802 South Coast Highway",
    "street_2": "SPC A1",
    "city": "Laguna Beach",
    "addr_state": "CA",
    "zipcode": 92651,
    "image": ""
  }
},
{
  "model": "address_api.address",
  "pk": 170,
  "fields": {
    "street": "30802 South Coast Highway",
    "street_2": "SPC A1",
    "city": "Laguna Beach",
    "addr_state": "CA",
    "zipcode": 92651,
    "image": ""
  }
},
{
  "model": "address_api.address",
  "pk": 171,
  "fields": {
    "street": "30802 South Coast Highway",
    "street_2": "SPC A1",
    "city": "Laguna Beach",
    "addr_state": "CA",
    "zipcode": 92651,
    "image": ""
  }
},
{
  "model": "address_api.address",
  "pk": 172,
  "fields": {
    "street": "30802 South Coast Highway",
    "street_2": "SPC A1",
    "city": "Laguna Beach",
    "addr_state": "CA",
    "zipcode": 92651,
    "image": ""
  }
},
{
  "model": "address_api.address",
  "pk": 173,
  "fields": {
    "street": "30802 South Coast Highway",
    "street_2": "SPC A1",
    "city": "Laguna Beach",
    "addr_state": "CA",
    "zipcode": 92651,
    "image": ""
  }
},
{
  "model": "address_api.address",
  "pk": 174,
  "fields": {
    "street": "30802 South Coast Highway",
    "street_2": "SPC A1",
    "city": "Laguna Beach",
    "addr_state": "CA",
    "zipcode": 92651,
    "image": ""
  }
},
{
  "model": "address_api.address",
  "pk": 175,
  "fields": {
    "street": "30802 South Coast Highway",
    "street_2": "SPC A1",
    "city": "Laguna Beach",
    "addr_state": "CA",
    "zipcode": 92651,
    "image": ""
  }
},
{
  "model": "address_api.address",
  "pk": 176,
  "fields": {
    "street": "30802 South Coast Highway",
    "street_2": "SPC A1",
    "city": "Laguna Beach",
    "addr_state": "CA",
    "zipcode": 92651,
    "image": ""
  }
},
{
  "model": "address_api.address",
  "pk": 177,
  "fields": {
    "street": "30802 South Coast Highway",
    "street_2": "SPC A1",
    "city": "Laguna Beach",
    "addr_state": "CA",
    "zipcode": 92651,
    "image": ""
  }
},
{
  "model": "address_api.address",
  "pk": 178,
  "fields": {
    "street": "30802 South Coast Highway",
    "street_2": "SPC A1",
    "city": "Laguna Beach",
    "addr_state": "CA",
    "zipcode": 92651,
    "image": ""
  }
},
{
  "model": "address_api.address",
  "pk": 179,
  "fields": {
    "street": "30802 South Coast Highway",
    "street_2": "SPC A1",
    "city": "Laguna Beach",
    "addr_state": "CA",
    "zipcode": 92651,
    "image": ""
  }
},
{
  "model": "address_api.address",
  "pk": 180,
  "fields": {
    "street": "30802 South Coast Highway",
    "street_2": "SPC A1",
    "city": "Laguna Beach",
    "addr_state": "CA",
    "zipcode": 92651,
    "image": ""
  }
},
{
  "model": "address_api.address",
  "pk": 181,
  "fields": {
    "street": "30802 South Coast Highway",
    "street_2": "SPC A1",
    "city": "Laguna Beach",
    "addr_state": "CA",
    "zipcode": 92651,
    "image": ""
  }
},
{
  "model": "address_api.address",
  "pk": 182,
  "fields": {
    "street": "30802 South Coast Highway",
    "street_2": "SPC A1",
    "city": "Laguna Beach",
    "addr_state": "CA",
    "zipcode": 92651,
    "image": ""
  }
},
{
  "model": "address_api.address",
  "pk": 183,
  "fields": {
    "street": "30802 South Coast Highway",
    "street_2": "SPC A1",
    "city": "Laguna Beach",
    "addr_state": "CA",
    "zipcode": 92651,
    "image": ""
  }
},
{
  "model": "address_api.address",
  "pk": 184,
  "fields": {
    "street": "30802 South Coast Highway",
    "street_2": "SPC A1",
    "city": "Laguna Beach",
    "addr_state": "CA",
    "zipcode": 92651,
    "image": ""
  }
},
{
  "model": "address_api.address",
  "pk": 185,
  "fields": {
    "street": "30802 South Coast Highway",
    "street_2": "SPC A1",
    "city": "Laguna Beach",
    "addr_state": "CA",
    "zipcode": 92651,
    "image": ""
  }
},
{
  "model": "address_api.address",
  "pk": 186,
  "fields": {
    "street": "112 Eden Park Boulevard",
    "street_2": null,
    "city": "Shiloh",
    "addr_state": "IL",
    "zipcode": 62269,
    "image": ""
  }
},
{
  "model": "address_api.address",
  "pk": 187,
  "fields": {
    "street": "30802 South Coast Highway",
    "street_2": "SPC A1",
    "city": "Laguna Beach",
    "addr_state": "CA",
    "zipcode": 92651,
    "image": ""
  }
},
{
  "model": "address_api.address",
  "pk": 188,
  "fields": {
    "street": "30802 South Coast Highway",
    "street_2": "SPC A1",
    "city": "Laguna Beach",
    "addr_state": "CA",
    "zipcode": 92651,
    "image": ""
  }
},
{
  "model": "address_api.address",
  "pk": 189,
  "fields": {
    "street": "112 Eden Park Boulevard",
    "street_2": null,
    "city": "Shiloh",
    "addr_state": "IL",
    "zipcode": 62269,
    "image": ""
  }
},
{
  "model": "address_api.address",
  "pk": 190,
  "fields": {
    "street": "30802 South Coast Highway",
    "street_2": "SPC A1",
    "city": "Laguna Beach",
    "addr_state": "CA",
    "zipcode": 92651,
    "image": ""
  }
},
{
  "model": "address_api.address",
  "pk": 191,
  "fields": {
    "street": "30802 South Coast Highway",
    "street_2": "SPC A1",
    "city": "Laguna Beach",
    "addr_state": "CA",
    "zipcode": 92651,
    "image": ""
  }
},
{
  "model": "address_api.address",
  "pk": 192,
  "fields": {
    "street": "30802 South Coast Highway",
    "street_2": "SPC A1",
    "city": "Laguna Beach",
    "addr_state": "CA",
    "zipcode": 92651,
    "image": ""
  }
},
{
  "model": "address_api.address",
  "pk": 193,
  "fields": {
    "street": "30802 South Coast Highway",
    "street_2": "SPC A1",
    "city": "Laguna Beach",
    "addr_state": "CA",
    "zipcode": 92651,
    "image": ""
  }
}
]
